[
    {
        "Altitude(m)": 711355.136735949,
        "Argument of Periapsis(deg)": 0.010251109067964361,
        "Eccentricity": 0.0,
        "Inclination(deg)": 45.0,
        "Latitude(deg)": -29.076336285965795,
        "Longitude(deg)": 42.884410597964106,
        "Mean Anomaly(deg)": -136.89280501726722,
        "RAAN(deg)": 289.99032325268763,
        "Satellite Name": "Constellation 1 1289",
        "Satellite Number": 1289,
        "Semi-Major Axis(m)": 7083131.272910544,
        "Time(s)": 171
    },
    {
        "Altitude(m)": 711368.8980965627,
        "Argument of Periapsis(deg)": 0.010311057074209765,
        "Eccentricity": 0.0,
        "Inclination(deg)": 45.0,
        "Latitude(deg)": -29.11218599119489,
        "Longitude(deg)": 42.93624628414442,
        "Mean Anomaly(deg)": -136.8321038770174,
        "RAAN(deg)": 289.9902666635221,
        "Satellite Name": "Constellation 1 1289",
        "Satellite Number": 1289,
        "Semi-Major Axis(m)": 7083131.272910544,
        "Time(s)": 172
    },
    {
        "Altitude(m)": 711382.6565753414,
        "Argument of Periapsis(deg)": 0.010371005080455171,
        "Eccentricity": 0.0,
        "Inclination(deg)": 45.0,
        "Latitude(deg)": -29.148012077478324,
        "Longitude(deg)": 42.98812060775201,
        "Mean Anomaly(deg)": -136.77140273676744,
        "RAAN(deg)": 289.9902100743565,
        "Satellite Name": "Constellation 1 1289",
        "Satellite Number": 1289,
        "Semi-Major Axis(m)": 7083131.272910544,
        "Time(s)": 173
    },
    {
        "Altitude(m)": 711396.4121242403,
        "Argument of Periapsis(deg)": 0.010430953086700577,
        "Eccentricity": 0.0,
        "Inclination(deg)": 45.0,
        "Latitude(deg)": -29.183814494738318,
        "Longitude(deg)": 43.040033627148084,
        "Mean Anomaly(deg)": -136.71070159651754,
        "RAAN(deg)": 289.9901534851909,
        "Satellite Name": "Constellation 1 1289",
        "Satellite Number": 1289,
        "Semi-Major Axis(m)": 7083131.272910544,
        "Time(s)": 174
    },
    {
        "Altitude(m)": 711410.1646952085,
        "Argument of Periapsis(deg)": 0.010490901092945983,
        "Eccentricity": 0.0,
        "Inclination(deg)": 45.0,
        "Latitude(deg)": -29.219593192826558,
        "Longitude(deg)": 43.09198540065109,
        "Mean Anomaly(deg)": -136.6500004562677,
        "RAAN(deg)": 289.99009689602536,
        "Satellite Name": "Constellation 1 1289",
        "Satellite Number": 1289,
        "Semi-Major Axis(m)": 7083131.272910544,
        "Time(s)": 175
    },
    {
        "Altitude(m)": 711423.9142401986,
        "Argument of Periapsis(deg)": 0.010550849099191389,
        "Eccentricity": 0.0,
        "Inclination(deg)": 45.0,
        "Latitude(deg)": -29.25534812152404,
        "Longitude(deg)": 43.14397598653563,
        "Mean Anomaly(deg)": -136.58929931601773,
        "RAAN(deg)": 289.9900403068598,
        "Satellite Name": "Constellation 1 1289",
        "Satellite Number": 1289,
        "Semi-Major Axis(m)": 7083131.272910544,
        "Time(s)": 176
    },
    {
        "Altitude(m)": 711437.6607111638,
        "Argument of Periapsis(deg)": 0.010610797105436795,
        "Eccentricity": 0.0,
        "Inclination(deg)": 45.0,
        "Latitude(deg)": -29.291079230540873,
        "Longitude(deg)": 43.19600544303205,
        "Mean Anomaly(deg)": -136.5285981757678,
        "RAAN(deg)": 289.98998371769426,
        "Satellite Name": "Constellation 1 1289",
        "Satellite Number": 1289,
        "Semi-Major Axis(m)": 7083131.272910544,
        "Time(s)": 177
    },
    {
        "Altitude(m)": 711451.4040600633,
        "Argument of Periapsis(deg)": 0.0106707451116822,
        "Eccentricity": 0.0,
        "Inclination(deg)": 45.0,
        "Latitude(deg)": -29.32678646951657,
        "Longitude(deg)": 43.248073660228926,
        "Mean Anomaly(deg)": -136.46789703551792,
        "RAAN(deg)": 289.9899271285287,
        "Satellite Name": "Constellation 1 1289",
        "Satellite Number": 1289,
        "Semi-Major Axis(m)": 7083131.272910544,
        "Time(s)": 178
    },
    {
        "Altitude(m)": 711465.1442388447,
        "Argument of Periapsis(deg)": 0.010730693117927606,
        "Eccentricity": 0.0,
        "Inclination(deg)": 45.0,
        "Latitude(deg)": -29.362469788019173,
        "Longitude(deg)": 43.30018103246038,
        "Mean Anomaly(deg)": -136.40719589526805,
        "RAAN(deg)": 289.98987053936304,
        "Satellite Name": "Constellation 1 1289",
        "Satellite Number": 1289,
        "Semi-Major Axis(m)": 7083131.272910544,
        "Time(s)": 179
    },
    {
        "Altitude(m)": 711478.8811994713,
        "Argument of Periapsis(deg)": 0.01079064112417301,
        "Eccentricity": 0.0,
        "Inclination(deg)": 45.0,
        "Latitude(deg)": -29.398129135546352,
        "Longitude(deg)": 43.35232744972352,
        "Mean Anomaly(deg)": -136.34649475501817,
        "RAAN(deg)": 289.9898139501975,
        "Satellite Name": "Constellation 1 1289",
        "Satellite Number": 1289,
        "Semi-Major Axis(m)": 7083131.272910544,
        "Time(s)": 180
    },
    {
        "Altitude(m)": 711492.6148939002,
        "Argument of Periapsis(deg)": 0.010850589130418416,
        "Eccentricity": 0.0,
        "Inclination(deg)": 45.0,
        "Latitude(deg)": -29.433764461524763,
        "Longitude(deg)": 43.4045129700659,
        "Mean Anomaly(deg)": -136.28579361476824,
        "RAAN(deg)": 289.98975736103193,
        "Satellite Name": "Constellation 1 1289",
        "Satellite Number": 1289,
        "Semi-Major Axis(m)": 7083131.272910544,
        "Time(s)": 181
    },
    {
        "Altitude(m)": 711506.3452740894,
        "Argument of Periapsis(deg)": 0.01091053713666382,
        "Eccentricity": 0.0,
        "Inclination(deg)": 45.0,
        "Latitude(deg)": -29.46937571530985,
        "Longitude(deg)": 43.4567376514876,
        "Mean Anomaly(deg)": -136.2250924745184,
        "RAAN(deg)": 289.9897007718664,
        "Satellite Name": "Constellation 1 1289",
        "Satellite Number": 1289,
        "Semi-Major Axis(m)": 7083131.272910544,
        "Time(s)": 182
    },
    {
        "Altitude(m)": 711520.0722920065,
        "Argument of Periapsis(deg)": 0.010970485142909228,
        "Eccentricity": 0.0,
        "Inclination(deg)": 45.0,
        "Latitude(deg)": -29.504962846186213,
        "Longitude(deg)": 43.509001551941104,
        "Mean Anomaly(deg)": -136.16439133426843,
        "RAAN(deg)": 289.98964418270083,
        "Satellite Name": "Constellation 1 1289",
        "Satellite Number": 1289,
        "Semi-Major Axis(m)": 7083131.272910544,
        "Time(s)": 183
    },
    {
        "Altitude(m)": 711533.795899616,
        "Argument of Periapsis(deg)": 0.011030433149154634,
        "Eccentricity": 0.0,
        "Inclination(deg)": 45.0,
        "Latitude(deg)": -29.54052580336713,
        "Longitude(deg)": 43.56130472933,
        "Mean Anomaly(deg)": -136.10369019401853,
        "RAAN(deg)": 289.9895875935352,
        "Satellite Name": "Constellation 1 1289",
        "Satellite Number": 1289,
        "Semi-Major Axis(m)": 7083131.272910544,
        "Time(s)": 184
    },
    {
        "Altitude(m)": 711547.5160488804,
        "Argument of Periapsis(deg)": 0.01109038115540004,
        "Eccentricity": 0.0,
        "Inclination(deg)": 45.0,
        "Latitude(deg)": -29.576064535995123,
        "Longitude(deg)": 43.61364707341234,
        "Mean Anomaly(deg)": -136.04298905376868,
        "RAAN(deg)": 289.98953100436967,
        "Satellite Name": "Constellation 1 1289",
        "Satellite Number": 1289,
        "Semi-Major Axis(m)": 7083131.272910544,
        "Time(s)": 185
    },
    {
        "Altitude(m)": 711561.2326917754,
        "Argument of Periapsis(deg)": 0.011150329161645444,
        "Eccentricity": 0.0,
        "Inclination(deg)": 45.0,
        "Latitude(deg)": -29.611578993140864,
        "Longitude(deg)": 43.66602897818695,
        "Mean Anomaly(deg)": -135.98228791351875,
        "RAAN(deg)": 289.9894744152041,
        "Satellite Name": "Constellation 1 1289",
        "Satellite Number": 1289,
        "Semi-Major Axis(m)": 7083131.272910544,
        "Time(s)": 186
    },
    {
        "Altitude(m)": 711574.9457802714,
        "Argument of Periapsis(deg)": 0.01121027716789085,
        "Eccentricity": 0.0,
        "Inclination(deg)": 45.0,
        "Latitude(deg)": -29.64706912380431,
        "Longitude(deg)": 43.718450333311516,
        "Mean Anomaly(deg)": -135.92158677326887,
        "RAAN(deg)": 289.98941782603856,
        "Satellite Name": "Constellation 1 1289",
        "Satellite Number": 1289,
        "Semi-Major Axis(m)": 7083131.272910544,
        "Time(s)": 187
    },
    {
        "Altitude(m)": 711588.6552663428,
        "Argument of Periapsis(deg)": 0.011270225174136258,
        "Eccentricity": 0.0,
        "Inclination(deg)": 45.0,
        "Latitude(deg)": -29.682534876914215,
        "Longitude(deg)": 43.770911196489884,
        "Mean Anomaly(deg)": -135.86088563301894,
        "RAAN(deg)": 289.989361236873,
        "Satellite Name": "Constellation 1 1289",
        "Satellite Number": 1289,
        "Semi-Major Axis(m)": 7083131.272910544,
        "Time(s)": 188
    },
    {
        "Altitude(m)": 711602.3611019743,
        "Argument of Periapsis(deg)": 0.011330173180381662,
        "Eccentricity": 0.0,
        "Inclination(deg)": 45.0,
        "Latitude(deg)": -29.71797620132768,
        "Longitude(deg)": 43.823411625373765,
        "Mean Anomaly(deg)": -135.8001844927691,
        "RAAN(deg)": 289.9893046477074,
        "Satellite Name": "Constellation 1 1289",
        "Satellite Number": 1289,
        "Semi-Major Axis(m)": 7083131.272910544,
        "Time(s)": 189
    }
]